CONNECTA T1.2           
1 55012U 23001D   26068.72174747  .00019849  00000+0  42959-3 0  9992
2 55012  97.3381 138.0701 0008104 103.5122 256.7030 15.44466747177166
CROCUBE                 
1 62394U 24247T   26067.15955265  .00046780  00000+0  11048-2 0  9992
2 62394  44.9727 105.9036 0002325   5.5541 354.5373 15.41186504 67722
