[{"OBJECT_NAME":"CONNECTA T1.2","OBJECT_ID":"2023-001D","EPOCH":"2026-03-09T17:19:18.981408","MEAN_MOTION":15.44466747,"ECCENTRICITY":0.00081044,"INCLINATION":97.3381,"RA_OF_ASC_NODE":138.0701,"ARG_OF_PERICENTER":103.5122,"MEAN_ANOMALY":256.703,"EPHEMERIS_TYPE":0,"CLASSIFICATION_TYPE":"U","NORAD_CAT_ID":55012,"ELEMENT_SET_NO":999,"REV_AT_EPOCH":17716,"BSTAR":0.00042958738,"MEAN_MOTION_DOT":0.00019849,"MEAN_MOTION_DDOT":0},{"OBJECT_NAME":"CROCUBE","OBJECT_ID":"2024-247T","EPOCH":"2026-03-08T03:49:45.348960","MEAN_MOTION":15.41186504,"ECCENTRICITY":0.00023252,"INCLINATION":44.9727,"RA_OF_ASC_NODE":105.9036,"ARG_OF_PERICENTER":5.5541,"MEAN_ANOMALY":354.5373,"EPHEMERIS_TYPE":0,"CLASSIFICATION_TYPE":"U","NORAD_CAT_ID":62394,"ELEMENT_SET_NO":999,"REV_AT_EPOCH":6772,"BSTAR":0.0011048401,"MEAN_MOTION_DOT":0.0004678,"MEAN_MOTION_DDOT":0}]
